[{"OBJECT_NAME":"STARLINK-2750","OBJECT_ID":"2021-044BF","EPOCH":"2026-03-10T00:00:02.999808","MEAN_MOTION":15.29347345,"ECCENTRICITY":0.00015288,"INCLINATION":53.1561,"RA_OF_ASC_NODE":73.8355,"ARG_OF_PERICENTER":90.9672,"MEAN_ANOMALY":300.9829,"EPHEMERIS_TYPE":0,"CLASSIFICATION_TYPE":"U","NORAD_CAT_ID":48691,"ELEMENT_SET_NO":999,"REV_AT_EPOCH":578,"BSTAR":0.0018051461,"MEAN_MOTION_DOT":0.00052085,"MEAN_MOTION_DDOT":0},{"OBJECT_NAME":"NUSAT-50 (NANCY ROMAN)","OBJECT_ID":"2024-149AB","EPOCH":"2026-03-09T19:15:16.765632","MEAN_MOTION":15.29713355,"ECCENTRICITY":0.00025229,"INCLINATION":97.3817,"RA_OF_ASC_NODE":150.7693,"ARG_OF_PERICENTER":238.0469,"MEAN_ANOMALY":122.0527,"EPHEMERIS_TYPE":0,"CLASSIFICATION_TYPE":"U","NORAD_CAT_ID":60493,"ELEMENT_SET_NO":999,"REV_AT_EPOCH":8693,"BSTAR":0.0004225155,"MEAN_MOTION_DOT":0.00012094,"MEAN_MOTION_DDOT":0}]
